ADRAS-J                 
1 58992U 24034A   24159.26516185  .00004207  00000+0  39377-3 0  9995
2 58992  98.2111 131.8376 0045721  82.0981 278.5424 14.93880972 16384
